{
  "type": "FeatureCollection",
  "features": [
    {
      "type": "Feature",
      "properties": {
        "norad_id": 66988,
        "name": "YAOGAN-47",
        "group": "last-30-days",
        "lat": -65.95686731573927,
        "lon": 72.31408069847367,
        "alt_km": 503.8458358463331,
        "timestamp": "2025-12-15T22:44:27.663181+00:00",
        "meta_object_name": "YAOGAN-47",
        "meta_object_id": "2025-289A",
        "meta_epoch": "2025-12-15T02:32:19.481856",
        "meta_mean_motion": 15.23184629,
        "meta_eccentricity": 7.87e-05,
        "meta_inclination": 97.5271,
        "meta_ra_of_asc_node": 54.2297,
        "meta_arg_of_pericenter": 67.3408,
        "meta_mean_anomaly": 292.7912,
        "meta_ephemeris_type": 0,
        "meta_classification_type": "U",
        "meta_norad_cat_id": 66988,
        "meta_element_set_no": 999,
        "meta_rev_at_epoch": 90,
        "meta_bstar": 0.00011849353,
        "meta_mean_motion_dot": 2.729e-05,
        "meta_mean_motion_ddot": 0,
        "tle_line1": "1 66988U 25289A   25349.10578104  .00002729  00000+0  11849-3 0  9997",
        "tle_line2": "2 66988  97.5271  54.2297 0000787  67.3408 292.7912 15.23184629   901"
      },
      "geometry": {
        "type": "Point",
        "coordinates": [
          72.31408069847367,
          -65.95686731573927
        ]
      }
    },
    {
      "type": "Feature",
      "properties": {
        "norad_id": 66989,
        "name": "CZ-4B R/B",
        "group": "last-30-days",
        "lat": -71.87495355306744,
        "lon": -148.30258866234652,
        "alt_km": 383.26724337198084,
        "timestamp": "2025-12-15T22:44:27.663192+00:00",
        "meta_object_name": "CZ-4B R/B",
        "meta_object_id": "2025-289B",
        "meta_epoch": "2025-12-15T03:16:29.358624",
        "meta_mean_motion": 15.67828745,
        "meta_eccentricity": 0.01471644,
        "meta_inclination": 97.5269,
        "meta_ra_of_asc_node": 54.6525,
        "meta_arg_of_pericenter": 353.8701,
        "meta_mean_anomaly": 6.0752,
        "meta_ephemeris_type": 0,
        "meta_classification_type": "U",
        "meta_norad_cat_id": 66989,
        "meta_element_set_no": 999,
        "meta_rev_at_epoch": 94,
        "meta_bstar": 0.00050242464,
        "meta_mean_motion_dot": 0.00101651,
        "meta_mean_motion_ddot": 5.153932e-06,
        "tle_line1": "1 66989U 25289B   25349.13645091  .00101651  51539-5  50242-3 0  9994",
        "tle_line2": "2 66989  97.5269  54.6525 0147164 353.8701   6.0752 15.67828745   941"
      },
      "geometry": {
        "type": "Point",
        "coordinates": [
          -148.30258866234652,
          -71.87495355306744
        ]
      }
    },
    {
      "type": "Feature",
      "properties": {
        "norad_id": 66990,
        "name": "TJS-22",
        "group": "last-30-days",
        "lat": 6.619385255366312,
        "lon": -41.78566656727309,
        "alt_km": 32617.5782330415,
        "timestamp": "2025-12-15T22:44:27.663204+00:00",
        "meta_object_name": "TJS-22",
        "meta_object_id": "2025-290A",
        "meta_epoch": "2025-12-10T07:11:32.845344",
        "meta_mean_motion": 2.15443148,
        "meta_eccentricity": 0.6664534,
        "meta_inclination": 20.1261,
        "meta_ra_of_asc_node": 301.1464,
        "meta_arg_of_pericenter": 180.6877,
        "meta_mean_anomaly": 177.6237,
        "meta_ephemeris_type": 0,
        "meta_classification_type": "U",
        "meta_norad_cat_id": 66990,
        "meta_element_set_no": 999,
        "meta_rev_at_epoch": 3,
        "meta_bstar": 0.079788243,
        "meta_mean_motion_dot": -3.8e-07,
        "meta_mean_motion_ddot": 0,
        "tle_line1": "1 66990U 25290A   25344.29968571 -.00000038  00000+0  79788-1 0  9994",
        "tle_line2": "2 66990  20.1261 301.1464 6664534 180.6877 177.6237  2.15443148    32"
      },
      "geometry": {
        "type": "Point",
        "coordinates": [
          -41.78566656727309,
          6.619385255366312
        ]
      }
    },
    {
      "type": "Feature",
      "properties": {
        "norad_id": 66991,
        "name": "CZ-3B R/B",
        "group": "last-30-days",
        "lat": 3.1502572511408777,
        "lon": 114.53595510687013,
        "alt_km": 207.90383368654693,
        "timestamp": "2025-12-15T22:44:27.663216+00:00",
        "meta_object_name": "CZ-3B R/B",
        "meta_object_id": "2025-290B",
        "meta_epoch": "2025-12-12T19:05:41.470368",
        "meta_mean_motion": 2.3805221,
        "meta_eccentricity": 0.7238268,
        "meta_inclination": 28.4385,
        "meta_ra_of_asc_node": 301.6136,
        "meta_arg_of_pericenter": 180.9822,
        "meta_mean_anomaly": 175.9828,
        "meta_ephemeris_type": 0,
        "meta_classification_type": "U",
        "meta_norad_cat_id": 66991,
        "meta_element_set_no": 999,
        "meta_rev_at_epoch": 9,
        "meta_bstar": 0.0011337,
        "meta_mean_motion_dot": 0.0004608,
        "meta_mean_motion_ddot": -1.7092e-07,
        "tle_line1": "1 66991U 25290B   25346.79561887  .00046080 -17092-6  11337-2 0  9991",
        "tle_line2": "2 66991  28.4385 301.6136 7238268 180.9822 175.9828  2.38052210    91"
      },
      "geometry": {
        "type": "Point",
        "coordinates": [
          114.53595510687013,
          3.1502572511408777
        ]
      }
    },
    {
      "type": "Feature",
      "properties": {
        "norad_id": 66993,
        "name": "2025-292A",
        "group": "last-30-days",
        "lat": 77.11541285337101,
        "lon": 26.46188627199841,
        "alt_km": 555.3086422840679,
        "timestamp": "2025-12-15T22:44:27.663230+00:00",
        "meta_object_name": "2025-292A",
        "meta_object_id": "2025-292A",
        "meta_epoch": "2025-12-15T06:25:33.003840",
        "meta_mean_motion": 15.04512099,
        "meta_eccentricity": 0.00138015,
        "meta_inclination": 97.6536,
        "meta_ra_of_asc_node": 61.7945,
        "meta_arg_of_pericenter": 263.4645,
        "meta_mean_anomaly": 96.501,
        "meta_ephemeris_type": 0,
        "meta_classification_type": "U",
        "meta_norad_cat_id": 66993,
        "meta_element_set_no": 999,
        "meta_rev_at_epoch": 77,
        "meta_bstar": 0.00023700354,
        "meta_mean_motion_dot": 3.264e-05,
        "meta_mean_motion_ddot": 0,
        "tle_line1": "1 66993U 25292A   25349.26774310  .00003264  00000+0  23700-3 0  9995",
        "tle_line2": "2 66993  97.6536  61.7945 0013801 263.4645  96.5010 15.04512099   777"
      },
      "geometry": {
        "type": "Point",
        "coordinates": [
          26.46188627199841,
          77.11541285337101
        ]
      }
    },
    {
      "type": "Feature",
      "properties": {
        "norad_id": 66994,
        "name": "2025-292B",
        "group": "last-30-days",
        "lat": 77.88068877787934,
        "lon": 23.689902577646333,
        "alt_km": 554.961946354495,
        "timestamp": "2025-12-15T22:44:27.663243+00:00",
        "meta_object_name": "2025-292B",
        "meta_object_id": "2025-292B",
        "meta_epoch": "2025-12-15T08:01:05.705184",
        "meta_mean_motion": 15.04564593,
        "meta_eccentricity": 0.00135917,
        "meta_inclination": 97.6546,
        "meta_ra_of_asc_node": 61.861,
        "meta_arg_of_pericenter": 263.8153,
        "meta_mean_anomaly": 96.1525,
        "meta_ephemeris_type": 0,
        "meta_classification_type": "U",
        "meta_norad_cat_id": 66994,
        "meta_element_set_no": 999,
        "meta_rev_at_epoch": 78,
        "meta_bstar": 0.00029484117,
        "meta_mean_motion_dot": 4.081e-05,
        "meta_mean_motion_ddot": 0,
        "tle_line1": "1 66994U 25292B   25349.33409381  .00004081  00000+0  29484-3 0  9990",
        "tle_line2": "2 66994  97.6546  61.8610 0013591 263.8153  96.1525 15.04564593   787"
      },
      "geometry": {
        "type": "Point",
        "coordinates": [
          23.689902577646333,
          77.88068877787934
        ]
      }
    },
    {
      "type": "Feature",
      "properties": {
        "norad_id": 66995,
        "name": "2025-292C",
        "group": "last-30-days",
        "lat": 77.95932010967448,
        "lon": 23.384646481483983,
        "alt_km": 555.109992173976,
        "timestamp": "2025-12-15T22:44:27.663253+00:00",
        "meta_object_name": "2025-292C",
        "meta_object_id": "2025-292C",
        "meta_epoch": "2025-12-15T06:25:18.226848",
        "meta_mean_motion": 15.04571767,
        "meta_eccentricity": 0.00138465,
        "meta_inclination": 97.6537,
        "meta_ra_of_asc_node": 61.7948,
        "meta_arg_of_pericenter": 264.153,
        "meta_mean_anomaly": 95.8118,
        "meta_ephemeris_type": 0,
        "meta_classification_type": "U",
        "meta_norad_cat_id": 66995,
        "meta_element_set_no": 999,
        "meta_rev_at_epoch": 77,
        "meta_bstar": 0.00031173962,
        "meta_mean_motion_dot": 4.32e-05,
        "meta_mean_motion_ddot": 0,
        "tle_line1": "1 66995U 25292C   25349.26757207  .00004320  00000+0  31174-3 0  9991",
        "tle_line2": "2 66995  97.6537  61.7948 0013846 264.1530  95.8118 15.04571767   771"
      },
      "geometry": {
        "type": "Point",
        "coordinates": [
          23.384646481483983,
          77.95932010967448
        ]
      }
    }
  ]
}